NORAD_CAT_ID,OBJECT_NAME,OBJECT_TYPE,EPOCH,MEAN_MOTION,ECCENTRICITY,INCLINATION,RA_OF_ASC_NODE,ARG_OF_PERICENTER,MEAN_ANOMALY,BSTAR,MEAN_MOTION_DOT,MEAN_MOTION_DDOT,TLE_LINE0,TLE_LINE1,TLE_LINE2,SEMIMAJOR_AXIS,PERIOD,APOGEE,PERIGEE,DECAYED
54075.0,STARLINK-5212,PAYLOAD,2024-01-24 23:20:33,15.08834214,0.0001386,53.2138,216.5784,90.2183,269.8968,0.0001137,1.522e-05,0.0,0 STARLINK-5212,1 54075U 22136AA  24024.97260854  .00001522  00000-0  11370-3 0  9993,2 54075  53.2138 216.5784 0001386  90.2183 269.8968 15.08834214 69963,6917.898,95.438,540.722,538.804,0.0
54075.0,STARLINK-5212,PAYLOAD,2024-01-25 20:00:34,15.08841993,0.0001355,53.2135,212.7125,86.4045,273.7102,0.0005201,8e-05,0.0,0 STARLINK-5212,1 54075U 22136AA  24025.83373250  .00008000  00000-0  52010-3 0  9998,2 54075  53.2135 212.7125 0001355  86.4045 273.7102 15.08841993 70572,6917.874,95.437,540.677,538.802,0.0
54075.0,STARLINK-5212,PAYLOAD,2024-01-26 19:51:21,15.08855974,0.0001365,53.2136,208.2516,81.9993,278.1154,0.0005611,8.657e-05,0.0,0 STARLINK-5212,1 54075U 22136AA  24026.82732698  .00008657  00000-0  56110-3 0  9996,2 54075  53.2136 208.2516 0001365  81.9993 278.1154 15.08855974 70244,6917.832,95.437,540.641,538.752,0.0
54075.0,STARLINK-5212,PAYLOAD,2024-01-27 18:06:44,15.08850833,0.0001596,53.2156,204.0844,73.1529,286.9639,0.00020417,2.964e-05,0.0,0 STARLINK-5212,1 54075U 22136AA  24027.75468457  .00002964  00000-0  20417-3 0  9994,2 54075  53.2156 204.0844 0001596  73.1529 286.9639 15.08850833 70860,6917.847,95.437,540.816,538.608,0.0
54075.0,STARLINK-5212,PAYLOAD,2024-01-27 21:17:30,15.08849745,0.0001563,53.2154,203.4904,74.7784,285.3381,0.00015677,2.209e-05,0.0,0 STARLINK-5212,1 54075U 22136AA  24027.88716351  .00002209  00000-0  15677-3 0  9991,2 54075  53.2154 203.4904 0001563  74.7784 285.3381 15.08849745 70409,6917.851,95.437,540.797,538.634,0.0
54075.0,STARLINK-5212,PAYLOAD,2024-01-28 11:35:59,15.08839935,0.0001553,53.217,200.8088,98.175,261.9419,-7.1821e-05,-1.431e-05,0.0,0 STARLINK-5212,1 54075U 22136AA  24028.48332525 -.00001431  00000-0 -71821-4 0  9997,2 54075  53.2170 200.8088 0001553  98.1750 261.9419 15.08839935 70977,6917.881,95.438,540.82,538.671,0.0
54075.0,STARLINK-5212,PAYLOAD,2024-01-28 14:46:45,15.08844528,0.0001646,53.2154,200.218,116.6118,243.5043,-1.0053e-05,-4.48e-06,0.0,0 STARLINK-5212,1 54075U 22136AA  24028.61580302 -.00000448  00000-0 -10053-4 0  9997,2 54075  53.2154 200.2180 0001646 116.6118 243.5043 15.08844528 70516,6917.867,95.437,540.87,538.593,0.0
54075.0,STARLINK-5212,PAYLOAD,2024-01-28 17:57:32,15.08840283,0.0001421,53.2157,199.6283,89.763,270.3525,8.6755e-06,-1.5e-06,0.0,0 STARLINK-5212,1 54075U 22136AA  24028.74828792 -.00000150  00000-0  86755-5 0  9991,2 54075  53.2157 199.6283 0001421  89.7630 270.3525 15.08840283 70533,6917.88,95.438,540.728,538.761,0.0
54075.0,STARLINK-5212,PAYLOAD,2024-01-29 11:26:46,15.08845453,0.0001217,53.2149,196.353,100.0653,260.0476,9.2766e-05,1.189e-05,0.0,0 STARLINK-5212,1 54075U 22136AA  24029.47692454  .00001189  00000-0  92766-4 0  9996,2 54075  53.2149 196.3530 0001217 100.0653 260.0476 15.08845453 70645,6917.864,95.437,540.571,538.887,0.0
54075.0,STARLINK-5212,PAYLOAD,2024-01-30 11:17:33,15.08840316,0.000109,53.2142,191.8921,84.7614,275.3502,0.00012712,1.736e-05,0.0,0 STARLINK-5212,1 54075U 22136AA  24030.47052822  .00001736  00000-0  12712-3 0  9997,2 54075  53.2142 191.8921 0001090  84.7614 275.3502 15.08840316 71278,6917.879,95.438,540.498,538.99,0.0
54075.0,STARLINK-5212,PAYLOAD,2024-01-30 14:28:20,15.0883622,0.0001144,53.2142,191.2976,85.1454,274.9669,5.8109e-05,6.37e-06,0.0,0 STARLINK-5212,1 54075U 22136AA  24030.60301022  .00000637  00000-0  58109-4 0  9991,2 54075  53.2142 191.2976 0001144  85.1454 274.9669 15.08836220 70816,6917.892,95.438,540.548,538.966,0.0
54075.0,STARLINK-5212,PAYLOAD,2024-01-30 17:39:06,15.08834805,0.000116,53.2148,190.7038,85.8401,274.2724,2.6182e-05,1.29e-06,0.0,0 STARLINK-5212,1 54075U 22136AA  24030.73549103  .00000129  00000-0  26182-4 0  9991,2 54075  53.2148 190.7038 0001160  85.8401 274.2724 15.08834805 70836,6917.896,95.438,540.564,538.959,0.0
54075.0,STARLINK-5212,PAYLOAD,2024-01-31 11:08:20,15.08838903,0.0001161,53.2149,187.4336,75.5555,284.5566,6.3217e-05,7.18e-06,0.0,0 STARLINK-5212,1 54075U 22136AA  24031.46413017  .00000718  00000-0  63217-4 0  9990,2 54075  53.2149 187.4336 0001161  75.5555 284.5566 15.08838903 70941,6917.884,95.438,540.552,538.946,0.0
54075.0,STARLINK-5212,PAYLOAD,2024-02-01 18:56:03,15.0883933,0.0001237,53.2161,181.4869,74.7417,285.3712,0.00014614,2.039e-05,0.0,0 STARLINK-5212,1 54075U 22136AA  24032.78893271  .00002039  00000-0  14614-3 0  9994,2 54075  53.2161 181.4869 0001237  74.7417 285.3712 15.08839330 71625,6917.882,95.438,540.603,538.892,0.0
54075.0,STARLINK-5212,PAYLOAD,2024-02-02 14:00:41,15.08843601,0.0001202,53.2166,177.9215,84.0785,276.0344,7.0797e-05,8.39e-06,0.0,0 STARLINK-5212,1 54075U 22136AA  24033.58380939  .00000839  00000-0  70797-4 0  9996,2 54075  53.2166 177.9215 0001202  84.0785 276.0344 15.08843601 71263,6917.869,95.437,540.566,538.903,0.0
54075.0,STARLINK-5212,PAYLOAD,2024-02-02 17:11:27,15.08845918,0.0001477,53.2167,177.3276,77.7751,282.3406,0.0001194,1.613e-05,0.0,0 STARLINK-5212,1 54075U 22136AA  24033.71628967  .00001613  00000-0  11940-3 0  9992,2 54075  53.2167 177.3276 0001477  77.7751 282.3406 15.08845918 71285,6917.862,95.437,540.749,538.706,0.0
54075.0,STARLINK-5212,PAYLOAD,2024-02-03 09:05:19,15.08846153,0.000206,53.2173,174.3586,62.9836,297.1366,7.5605e-05,9.15e-06,0.0,0 STARLINK-5212,1 54075U 22136AA  24034.37869296  .00000915  00000-0  75605-4 0  9990,2 54075  53.2173 174.3586 0002060  62.9836 297.1366 15.08846153 71384,6917.862,95.437,541.152,538.302,0.0
54075.0,STARLINK-5212,PAYLOAD,2024-02-03 15:26:51,15.08841553,0.0001803,53.2173,173.1659,64.9151,295.2028,7.6636e-05,9.32e-06,0.0,0 STARLINK-5212,1 54075U 22136AA  24034.64365436  .00000932  00000-0  76636-4 0  9991,2 54075  53.2173 173.1659 0001803  64.9151 295.2028 15.08841553 71909,6917.876,95.437,540.988,538.493,0.0
54075.0,STARLINK-5212,PAYLOAD,2024-02-04 13:42:15,15.08845582,0.0001541,53.2173,169.0017,79.2466,280.8699,6.7776e-05,7.91e-06,0.0,0 STARLINK-5212,1 54075U 22136AA  24035.57100925  .00000791  00000-0  67776-4 0  9992,2 54075  53.2173 169.0017 0001541  79.2466 280.8699 15.08845582 71560,6917.863,95.437,540.794,538.662,0.0
54075.0,STARLINK-5212,PAYLOAD,2024-02-04 18:28:23,15.08854809,0.0001648,53.2168,168.1077,95.0316,265.0864,7.1848e-05,8.56e-06,0.0,0 STARLINK-5212,1 54075U 22136AA  24035.76972129  .00000856  00000-0  71848-4 0  9993,2 54075  53.2168 168.1077 0001648  95.0316 265.0864 15.08854809 72076,6917.835,95.437,540.84,538.56,0.0
54075.0,STARLINK-5212,PAYLOAD,2024-02-05 11:57:39,15.08841538,0.0001449,53.2157,164.831,126.2132,233.8994,-2.7465e-05,-7.25e-06,0.0,0 STARLINK-5212,1 54075U 22136AA  24036.49837082 -.00000725  00000-0 -27465-4 0  9995,2 54075  53.2157 164.8310 0001449 126.2132 233.8994 15.08841538 72183,6917.876,95.437,540.743,538.738,0.0
54075.0,STARLINK-5212,PAYLOAD,2024-02-05 13:33:02,15.08842949,0.0001416,53.2165,164.5328,125.4799,234.6325,-3.5953e-05,-8.6e-06,0.0,0 STARLINK-5212,1 54075U 22136AA  24036.56461048 -.00000860  00000-0 -35953-4 0  9999,2 54075  53.2165 164.5328 0001416 125.4799 234.6325 15.08842949 71714,6917.871,95.437,540.716,538.757,0.0
54075.0,STARLINK-5212,PAYLOAD,2024-02-06 13:23:49,15.08846299,0.0001647,53.2161,160.073,111.5374,248.5794,6.6891e-05,7.77e-06,0.0,0 STARLINK-5212,1 54075U 22136AA  24037.55820812  .00000777  00000-0  66891-4 0  9997,2 54075  53.2161 160.0730 0001647 111.5374 248.5794 15.08846299 71861,6917.861,95.437,540.866,538.587,0.0
54075.0,STARLINK-5212,PAYLOAD,2024-02-06 14:59:12,15.08848273,0.0001545,53.2163,159.7747,105.3408,254.7755,7.1176e-05,8.45e-06,0.0,0 STARLINK-5212,1 54075U 22136AA  24037.62444699  .00000845  00000-0  71176-4 0  9998,2 54075  53.2163 159.7747 0001545 105.3408 254.7755 15.08848273 72357,6917.855,95.437,540.789,538.651,0.0
54075.0,STARLINK-5212,PAYLOAD,2024-02-07 11:39:13,15.08837951,0.0001699,53.2181,155.9194,113.9786,246.1384,0.00010102,1.32e-05,0.0,0 STARLINK-5212,1 54075U 22136AA  24038.48557525  .00001320  00000-0  10102-3 0  9996,2 54075  53.2181 155.9194 0001699 113.9786 246.1384 15.08837951 72483,6917.887,95.438,540.927,538.576,0.0
54075.0,STARLINK-5212,PAYLOAD,2024-02-07 14:49:59,15.08839208,0.0001691,53.2182,155.3258,113.4563,246.6607,9.9279e-05,1.292e-05,0.0,0 STARLINK-5212,1 54075U 22136AA  24038.61805468  .00001292  00000-0  99279-4 0  9994,2 54075  53.2182 155.3258 0001691 113.4563 246.6607 15.08839208 72029,6917.883,95.438,540.918,538.578,0.0
54075.0,STARLINK-5212,PAYLOAD,2024-02-08 14:40:46,15.0884678,0.0001345,53.2172,150.8636,93.9375,266.1771,0.00010167,1.331e-05,0.0,0 STARLINK-5212,1 54075U 22136AA  24039.61165242  .00001331  00000-0  10167-3 0  9996,2 54075  53.2172 150.8636 0001345  93.9375 266.1771 15.08846780 72175,6917.86,95.437,540.655,538.794,0.0
54075.0,STARLINK-5212,PAYLOAD,2024-02-09 11:20:48,15.08839466,0.0001541,53.2173,146.996,102.6563,257.4602,7.6744e-05,9.34e-06,0.0,0 STARLINK-5212,1 54075U 22136AA  24040.47277803  .00000934  00000-0  76744-4 0  9991,2 54075  53.2173 146.9960 0001541 102.6563 257.4602 15.08839466 72783,6917.882,95.438,540.813,538.681,0.0
54075.0,STARLINK-5212,PAYLOAD,2024-02-09 14:31:32,15.08869302,0.0002383,53.2167,146.4023,46.1558,313.963,0.00032127,4.833e-05,0.0,0 STARLINK-5212,1 54075U 22136AA  24040.60523742  .00004833  00000-0  32127-3 0  9990,2 54075  53.2167 146.4023 0002383  46.1558 313.9630 15.08869302 72323,6917.791,95.436,541.304,538.007,0.0
54075.0,STARLINK-5212,PAYLOAD,2024-02-10 11:11:34,15.08853315,0.0001821,53.2173,142.5353,108.1723,251.9468,0.00013876,1.922e-05,0.0,0 STARLINK-5212,1 54075U 22136AA  24041.46636639  .00001922  00000-0  13876-3 0  9991,2 54075  53.2173 142.5353 0001821 108.1723 251.9468 15.08853315 72936,6917.84,95.437,540.964,538.445,0.0
